[{"OBJECT_NAME":"STARLINK-35549","OBJECT_ID":"2025-237AB","EPOCH":"2026-03-09T07:08:41.045856","MEAN_MOTION":15.30194621,"ECCENTRICITY":0.00012771,"INCLINATION":53.1611,"RA_OF_ASC_NODE":41.2195,"ARG_OF_PERICENTER":85.3539,"MEAN_ANOMALY":274.7608,"EPHEMERIS_TYPE":0,"CLASSIFICATION_TYPE":"U","NORAD_CAT_ID":66139,"ELEMENT_SET_NO":999,"REV_AT_EPOCH":2255,"BSTAR":0.0010537818,"MEAN_MOTION_DOT":0.00030976,"MEAN_MOTION_DDOT":0},{"OBJECT_NAME":"CZ-6A DEB","OBJECT_ID":"2024-140UQ","EPOCH":"2026-03-09T14:36:35.114400","MEAN_MOTION":15.29987293,"ECCENTRICITY":0.0094347,"INCLINATION":89.0483,"RA_OF_ASC_NODE":279.5661,"ARG_OF_PERICENTER":66.0307,"MEAN_ANOMALY":295.0787,"EPHEMERIS_TYPE":0,"CLASSIFICATION_TYPE":"U","NORAD_CAT_ID":61327,"ELEMENT_SET_NO":999,"REV_AT_EPOCH":8299,"BSTAR":0.0015211,"MEAN_MOTION_DOT":0.00050856,"MEAN_MOTION_DDOT":0}]
